NORAD_CAT_ID,OBJECT_NAME,OBJECT_TYPE,EPOCH,MEAN_MOTION,ECCENTRICITY,INCLINATION,RA_OF_ASC_NODE,ARG_OF_PERICENTER,MEAN_ANOMALY,BSTAR,MEAN_MOTION_DOT,MEAN_MOTION_DDOT,TLE_LINE0,TLE_LINE1,TLE_LINE2,SEMIMAJOR_AXIS,PERIOD,APOGEE,PERIGEE,DECAYED
53974.0,STARLINK-5159,PAYLOAD,2024-08-06 14:13:40,15.08824863,0.0001578,53.2157,287.8793,108.534,251.5824,7.279e-05,8.7e-06,0.0,0 STARLINK-5159,1 53974U 22125L   24219.59283261  .00000870  00000-0  72790-4 0  9998,2 53974  53.2157 287.8793 0001578 108.5340 251.5824 15.08824863102037,6917.927,95.439,540.883,538.7,0.0
53974.0,STARLINK-5159,PAYLOAD,2024-08-07 10:53:41,15.08857038,0.0001434,53.2149,284.0157,102.1261,257.9892,0.0012884,0.00020286,0.0,0 STARLINK-5159,1 53974U 22125L   24220.45395403  .00020286  00000-0  12884-2 0  9996,2 53974  53.2149 284.0157 0001434 102.1261 257.9892 15.08857038102231,6917.828,95.436,540.685,538.701,0.0
53974.0,STARLINK-5159,PAYLOAD,2024-08-08 10:44:28,15.08860034,0.0001533,53.2154,279.5554,106.9381,253.1779,0.00065669,0.00010184,0.0,0 STARLINK-5159,1 53974U 22125L   24221.44754831  .00010184  00000-0  65669-3 0  9996,2 53974  53.2154 279.5554 0001533 106.9381 253.1779 15.08860034102313,6917.819,95.436,540.745,538.624,0.0
53974.0,STARLINK-5159,PAYLOAD,2024-08-09 04:13:42,15.08848151,0.0001758,53.2155,276.2846,94.5774,265.5419,0.00030917,4.637e-05,0.0,0 STARLINK-5159,1 53974U 22125L   24222.17618793  .00004637  00000-0  30917-3 0  9997,2 53974  53.2155 276.2846 0001758  94.5774 265.5419 15.08848151102492,6917.855,95.437,540.937,538.504,0.0
53974.0,STARLINK-5159,PAYLOAD,2024-08-09 10:35:14,15.08851577,0.0001608,53.216,275.0998,98.3462,261.7713,0.00017449,2.491e-05,0.0,0 STARLINK-5159,1 53974U 22125L   24222.44114542  .00002491  00000-0  17449-3 0  9991,2 53974  53.2160 275.0998 0001608  98.3462 261.7713 15.08851577102461,6917.845,95.437,540.822,538.598,0.0
53974.0,STARLINK-5159,PAYLOAD,2024-08-09 20:07:33,15.08843848,0.0001386,53.2152,273.3112,90.3935,269.7216,4.1909e-05,3.79e-06,0.0,0 STARLINK-5159,1 53974U 22125L   24222.83858633  .00000379  00000-0  41909-4 0  9992,2 53974  53.2152 273.3112 0001386  90.3935 269.7216 15.08843848102593,6917.869,95.437,540.692,538.775,0.0
53974.0,STARLINK-5159,PAYLOAD,2024-08-10 04:04:29,15.0883389,0.0001949,53.2158,271.8238,96.2554,263.8661,-0.0001492,-2.662e-05,0.0,0 STARLINK-5159,1 53974U 22125L   24223.16979117 -.00002662  00000-0 -14920-3 0  9991,2 53974  53.2158 271.8238 0001949  96.2554 263.8661 15.08833890102649,6917.899,95.438,541.112,538.416,0.0
53974.0,STARLINK-5159,PAYLOAD,2024-08-10 13:36:48,15.08839011,0.0001719,53.2156,270.0392,95.6896,264.4293,5.1441e-05,5.31e-06,0.0,0 STARLINK-5159,1 53974U 22125L   24223.56723119  .00000531  00000-0  51441-4 0  9995,2 53974  53.2156 270.0392 0001719  95.6896 264.4293 15.08839011102634,6917.883,95.438,540.938,538.559,0.0
53974.0,STARLINK-5159,PAYLOAD,2024-08-11 11:52:13,15.08838634,0.0001902,53.2155,265.8771,85.2219,274.899,7.1952e-05,8.57e-06,0.0,0 STARLINK-5159,1 53974U 22125L   24224.49459876  .00000857  00000-0  71952-4 0  9994,2 53974  53.2155 265.8771 0001902  85.2219 274.8990 15.08838634102846,6917.885,95.438,541.065,538.434,0.0
53974.0,STARLINK-5159,PAYLOAD,2024-08-11 19:49:09,15.08841669,0.0001936,53.2181,264.3876,88.1596,271.9618,0.00023143,3.397e-05,0.0,0 STARLINK-5159,1 53974U 22125L   24224.82579872  .00003397  00000-0  23143-3 0  9990,2 53974  53.2181 264.3876 0001936  88.1596 271.9618 15.08841669102827,6917.875,95.437,541.08,538.401,0.0
53974.0,STARLINK-5159,PAYLOAD,2024-08-12 08:32:13,15.0884815,0.0001441,53.2147,262.0096,95.2811,264.8346,0.00035223,5.323e-05,0.0,0 STARLINK-5159,1 53974U 22125L   24225.35571526  .00005323  00000-0  35223-3 0  9990,2 53974  53.2147 262.0096 0001441  95.2811 264.8346 15.08848150102908,6917.855,95.437,540.717,538.724,0.0
53974.0,STARLINK-5159,PAYLOAD,2024-08-12 19:39:53,15.08898717,0.0001472,53.217,259.9273,92.9724,267.1437,0.0011988,0.00018873,0.0,0 STARLINK-5159,1 53974U 22125L   24225.81936980  .00018873  00000-0  11988-2 0  9995,2 53974  53.2170 259.9273 0001472  92.9724 267.1437 15.08898717102975,6917.701,95.434,540.584,538.548,0.0
53974.0,STARLINK-5159,PAYLOAD,2024-08-13 02:01:26,15.08864693,0.0002676,53.2173,258.7412,96.5815,263.5482,0.00027568,4.105e-05,0.0,0 STARLINK-5159,1 53974U 22125L   24226.08433805  .00004105  00000-0  27568-3 0  9998,2 53974  53.2173 258.7412 0002676  96.5815 263.5482 15.08864693103087,6917.805,95.436,541.521,537.819,0.0
53974.0,STARLINK-5159,PAYLOAD,2024-08-13 11:33:46,15.08824816,0.0001437,53.2145,256.9543,84.583,275.5326,-0.00055682,-9.135e-05,0.0,0 STARLINK-5159,1 53974U 22125L   24226.48179205 -.00009135  00000-0 -55682-3 0  9991,2 53974  53.2145 256.9543 0001437  84.5830 275.5326 15.08824816103149,6917.927,95.439,540.786,538.798,0.0
53974.0,STARLINK-5159,PAYLOAD,2024-08-13 19:30:42,15.08823182,0.0001495,53.2148,255.4676,84.9644,275.1519,-0.00044497,-7.359e-05,0.0,0 STARLINK-5159,1 53974U 22125L   24226.81299544 -.00007359  00000-0 -44497-3 0  9995,2 53974  53.2148 255.4676 0001495  84.9644 275.1519 15.08823182103127,6917.932,95.439,540.831,538.763,0.0
53974.0,STARLINK-5159,PAYLOAD,2024-08-14 08:13:48,15.08825044,0.0001508,53.2145,253.089,80.5474,279.5688,-0.00012799,-2.324e-05,0.0,0 STARLINK-5159,1 53974U 22125L   24227.34292116 -.00002324  00000-0 -12799-3 0  9999,2 53974  53.2145 253.0890 0001508  80.5474 279.5688 15.08825044103274,6917.926,95.439,540.834,538.748,0.0
53974.0,STARLINK-5159,PAYLOAD,2024-08-14 19:21:30,15.08826103,0.0001582,53.2151,251.0074,82.4396,277.6776,0.00026646,3.954e-05,0.0,0 STARLINK-5159,1 53974U 22125L   24227.80660777  .00003954  00000-0  26646-3 0  9996,2 53974  53.2151 251.0074 0001582  82.4396 277.6776 15.08826103103273,6917.923,95.438,540.882,538.693,0.0
53974.0,STARLINK-5159,PAYLOAD,2024-08-15 08:04:36,15.08837197,0.0001628,53.2148,248.6286,78.7995,281.318,0.00060769,9.396e-05,0.0,0 STARLINK-5159,1 53974U 22125L   24228.33653187  .00009396  00000-0  60769-3 0  9992,2 53974  53.2148 248.6286 0001628  78.7995 281.3180 15.08837197103355,6917.889,95.438,540.88,538.628,0.0
53974.0,STARLINK-5159,PAYLOAD,2024-08-16 07:55:22,15.08860879,0.0001654,53.2144,244.1685,78.5419,281.5759,0.00068257,0.00010598,0.0,0 STARLINK-5159,1 53974U 22125L   24229.33012430  .00010598  00000-0  68257-3 0  9999,2 53974  53.2144 244.1685 0001654  78.5419 281.5759 15.08860879103507,6917.817,95.436,540.826,538.537,0.0
53974.0,STARLINK-5159,PAYLOAD,2024-08-17 04:35:23,15.08847546,0.0001782,53.2146,240.3023,104.5986,255.5204,4.9056e-05,4.93e-06,0.0,0 STARLINK-5159,1 53974U 22125L   24230.19124136  .00000493  00000-0  49056-4 0  9992,2 53974  53.2146 240.3023 0001782 104.5986 255.5204 15.08847546103708,6917.857,95.437,540.955,538.49,0.0
53974.0,STARLINK-5159,PAYLOAD,2024-08-17 10:56:55,15.08845997,0.000169,53.2143,239.1129,101.8217,258.2965,4.1795e-05,3.77e-06,0.0,0 STARLINK-5159,1 53974U 22125L   24230.45620128  .00000377  00000-0  41795-4 0  9996,2 53974  53.2143 239.1129 0001690 101.8217 258.2965 15.08845997103671,6917.862,95.437,540.896,538.558,0.0
53974.0,STARLINK-5159,PAYLOAD,2024-08-18 06:01:33,15.0884704,0.0001689,53.2146,235.5427,99.6843,260.434,-6.8154e-05,-1.373e-05,0.0,0 STARLINK-5159,1 53974U 22125L   24231.25108023 -.00001373  00000-0 -68154-4 0  9997,2 53974  53.2146 235.5427 0001689  99.6843 260.4340 15.08847040103866,6917.859,95.437,540.892,538.555,0.0
53974.0,STARLINK-5159,PAYLOAD,2024-08-19 04:16:57,15.08835653,0.0001667,53.2144,231.3797,97.5291,262.589,3.898e-05,3.32e-06,0.0,0 STARLINK-5159,1 53974U 22125L   24232.17844715  .00000332  00000-0  38980-4 0  9990,2 53974  53.2144 231.3797 0001667  97.5291 262.5890 15.08835653104005,6917.894,95.438,540.912,538.605,0.0
53974.0,STARLINK-5159,PAYLOAD,2024-08-19 07:27:44,15.08836327,0.0001612,53.2143,230.7848,94.0451,266.0726,4.1354e-05,3.7e-06,0.0,0 STARLINK-5159,1 53974U 22125L   24232.31092713  .00000370  00000-0  41354-4 0  9990,2 53974  53.2143 230.7848 0001612  94.0451 266.0726 15.08836327103953,6917.892,95.438,540.872,538.641,0.0
53974.0,STARLINK-5159,PAYLOAD,2024-08-20 05:43:08,15.08839971,0.000159,53.2156,226.624,95.802,264.3154,9.2281e-05,1.181e-05,0.0,0 STARLINK-5159,1 53974U 22125L   24233.23828925  .00001181  00000-0  92281-4 0  9990,2 53974  53.2156 226.6240 0001590  95.8020 264.3154 15.08839971104161,6917.88,95.438,540.845,538.646,0.0
53974.0,STARLINK-5159,PAYLOAD,2024-08-21 08:44:41,15.08845817,0.0001548,53.2153,221.5673,88.9398,271.1771,0.00014871,2.08e-05,0.0,0 STARLINK-5159,1 53974U 22125L   24234.36436551  .00002080  00000-0  14871-3 0  9992,2 53974  53.2153 221.5673 0001548  88.9398 271.1771 15.08845817104332,6917.863,95.437,540.798,538.657,0.0
53974.0,STARLINK-5159,PAYLOAD,2024-08-21 21:27:47,15.08801175,0.0001982,53.2158,219.1799,136.7998,223.315,0.00054015,8.31e-05,0.0,0 STARLINK-5159,1 53974U 22125L   24234.89429576  .00008310  00000-0  54015-3 0  9995,2 53974  53.2158 219.1799 0001982 136.7998 223.3150 15.08801175104417,6917.999,95.44,541.235,538.493,0.0
